NORAD_CAT_ID,OBJECT_NAME,OBJECT_TYPE,EPOCH,MEAN_MOTION,ECCENTRICITY,INCLINATION,RA_OF_ASC_NODE,ARG_OF_PERICENTER,MEAN_ANOMALY,BSTAR,MEAN_MOTION_DOT,MEAN_MOTION_DDOT,TLE_LINE0,TLE_LINE1,TLE_LINE2,SEMIMAJOR_AXIS,PERIOD,APOGEE,PERIGEE,DECAYED
56464.0,STARLINK-6043,PAYLOAD,2024-04-23 21:40:23,14.98339078,0.0002724,70.0006,70.9678,263.5565,96.5284,-6.3192e-05,-8.47e-06,0.0,0 STARLINK-6043,1 56464U 23064S   24114.90305551 -.00000847  00000-0 -63192-4 0  9996,2 56464  70.0006  70.9678 0002724 263.5565  96.5284 14.98339078 52670,6950.165,96.106,573.923,570.137,0.0
56464.0,STARLINK-6043,PAYLOAD,2024-04-24 02:28:48,14.98338933,0.0002703,70.0004,70.4629,257.9856,102.1001,-6.0017e-05,-8.09e-06,0.0,0 STARLINK-6043,1 56464U 23064S   24115.10333348 -.00000809  00000-0 -60017-4 0  9995,2 56464  70.0004  70.4629 0002703 257.9856 102.1001 14.98338933 53060,6950.165,96.106,573.909,570.152,0.0
56464.0,STARLINK-6043,PAYLOAD,2024-04-24 07:17:11,14.98341659,0.0002641,70.0009,69.9594,246.9713,113.1167,-3.466e-05,-5.07e-06,0.0,0 STARLINK-6043,1 56464U 23064S   24115.30360938 -.00000507  00000-0 -34660-4 0  9992,2 56464  70.0009  69.9594 0002641 246.9713 113.1167 14.98341659 52737,6950.157,96.106,573.857,570.186,0.0
56464.0,STARLINK-6043,PAYLOAD,2024-04-24 21:42:24,14.98340181,0.0002383,70.0019,68.4451,237.3623,122.7307,-0.00013531,-1.707e-05,0.0,0 STARLINK-6043,1 56464U 23064S   24115.90444874 -.00001707  00000-0 -13531-3 0  9996,2 56464  70.0019  68.4451 0002383 237.3623 122.7307 14.98340181 52822,6950.161,96.106,573.683,570.37,0.0
56464.0,STARLINK-6043,PAYLOAD,2024-04-25 04:06:56,14.98347644,0.0002362,70.002,67.7721,235.7527,124.3408,-0.00028372,-3.478e-05,0.0,0 STARLINK-6043,1 56464U 23064S   24116.17148672 -.00003478  00000-0 -28372-3 0  9999,2 56464  70.0020  67.7721 0002362 235.7527 124.3408 14.98347644 53224,6950.138,96.106,573.645,570.362,0.0
56464.0,STARLINK-6043,PAYLOAD,2024-04-25 05:43:04,14.98338495,0.0002448,70.002,67.6039,241.2803,118.8111,-0.00011602,-1.477e-05,0.0,0 STARLINK-6043,1 56464U 23064S   24116.23824812 -.00001477  00000-0 -11602-3 0  9998,2 56464  70.0020  67.6039 0002448 241.2803 118.8111 14.98338495 52872,6950.167,96.106,573.733,570.33,0.0
56464.0,STARLINK-6043,PAYLOAD,2024-04-25 21:44:25,14.98329176,0.0002493,70.0018,65.9188,242.1928,117.8978,5.707e-05,5.88e-06,0.0,0 STARLINK-6043,1 56464U 23064S   24116.90584668  .00000588  00000-0  57070-4 0  9994,2 56464  70.0018  65.9188 0002493 242.1928 117.8978 14.98329176 52970,6950.195,96.107,573.793,570.328,0.0
56464.0,STARLINK-6043,PAYLOAD,2024-04-26 04:08:57,14.98330568,0.0002561,70.002,65.247,235.0972,124.9946,4.9952e-05,5.03e-06,0.0,0 STARLINK-6043,1 56464U 23064S   24117.17288554  .00000503  00000-0  49952-4 0  9996,2 56464  70.0020  65.2470 0002561 235.0972 124.9946 14.98330568 53372,6950.191,96.107,573.836,570.276,0.0
56464.0,STARLINK-6043,PAYLOAD,2024-04-26 13:45:45,14.98334868,0.0002401,70.0017,64.2317,271.4631,88.6253,3.0081e-06,-5.7e-07,0.0,0 STARLINK-6043,1 56464U 23064S   24117.57344453 -.00000057  00000-0  30081-5 0  9990,2 56464  70.0017  64.2317 0002401 271.4631  88.6253 14.98334868 53077,6950.178,96.107,573.712,570.374,0.0
56464.0,STARLINK-6043,PAYLOAD,2024-04-26 21:46:26,14.98326489,0.000269,70.0016,63.3905,269.3422,90.7429,0.00014401,1.626e-05,0.0,0 STARLINK-6043,1 56464U 23064S   24117.90724547  .00001626  00000-0  14401-3 0  9991,2 56464  70.0016  63.3905 0002690 269.3422  90.7429 14.98326489 53128,6950.204,96.107,573.938,570.199,0.0
56464.0,STARLINK-6043,PAYLOAD,2024-04-27 04:10:57,14.98335455,0.0002603,70.0007,62.7196,260.5269,99.5596,0.00011853,1.322e-05,0.0,0 STARLINK-6043,1 56464U 23064S   24118.17428046  .00001322  00000-0  11853-3 0  9997,2 56464  70.0007  62.7196 0002603 260.5269  99.5596 14.98335455 53528,6950.176,96.107,573.85,570.232,0.0
56464.0,STARLINK-6043,PAYLOAD,2024-04-27 13:47:46,14.98325818,0.000273,70.0013,61.7099,266.088,93.9967,-2.6817e-05,-4.13e-06,0.0,0 STARLINK-6043,1 56464U 23064S   24118.57484877 -.00000413  00000-0 -26817-4 0  9994,2 56464  70.0013  61.7099 0002730 266.0880  93.9967 14.98325818 53226,6950.206,96.107,573.968,570.173,0.0
56464.0,STARLINK-6043,PAYLOAD,2024-04-27 20:12:19,14.98325411,0.0002556,70.0018,61.0342,271.0407,89.046,-8.18e-05,-1.069e-05,0.0,0 STARLINK-6043,1 56464U 23064S   24118.84189254 -.00001069  00000-0 -81800-4 0  9996,2 56464  70.0018  61.0342 0002556 271.0407  89.0460 14.98325411 53629,6950.207,96.107,573.849,570.296,0.0
56464.0,STARLINK-6043,PAYLOAD,2024-04-27 21:48:27,14.98324198,0.0002919,70.0001,60.8653,268.3586,91.7239,-0.00010935,-1.397e-05,0.0,0 STARLINK-6043,1 56464U 23064S   24118.90865324 -.00001397  00000-0 -10935-3 0  9996,2 56464  70.0001  60.8653 0002919 268.3586  91.7239 14.98324198 53279,6950.211,96.107,574.105,570.047,0.0
56464.0,STARLINK-6043,PAYLOAD,2024-04-28 13:49:47,14.98330815,0.000308,70.0005,59.185,265.7452,94.3355,-8.4399e-05,-1.1e-05,0.0,0 STARLINK-6043,1 56464U 23064S   24119.57624974 -.00001100  00000-0 -84399-4 0  9992,2 56464  70.0005  59.1850 0003080 265.7452  94.3355 14.98330815 53378,6950.19,96.107,574.196,569.915,0.0
56464.0,STARLINK-6043,PAYLOAD,2024-04-28 20:14:20,14.98328272,0.0002884,70.0007,58.5134,274.2433,85.8397,4.1404e-05,4.01e-06,0.0,0 STARLINK-6043,1 56464U 23064S   24119.84328926  .00000401  00000-0  41404-4 0  9991,2 56464  70.0007  58.5134 0002884 274.2433  85.8397 14.98328272 53772,6950.198,96.107,574.068,570.059,0.0
56464.0,STARLINK-6043,PAYLOAD,2024-04-28 21:50:28,14.98328065,0.0003132,70.0001,58.3437,270.2414,89.8387,4.4389e-05,4.37e-06,0.0,0 STARLINK-6043,1 56464U 23064S   24119.91004871  .00000437  00000-0  44389-4 0  9993,2 56464  70.0001  58.3437 0003132 270.2414  89.8387 14.98328065 53427,6950.199,96.107,574.241,569.887,0.0
56464.0,STARLINK-6043,PAYLOAD,2024-04-29 05:51:07,14.98336911,0.0003119,70.0004,57.5018,269.3949,90.6852,6.5689e-05,6.91e-06,0.0,0 STARLINK-6043,1 56464U 23064S   24120.24384224  .00000691  00000-0  65689-4 0  9992,2 56464  70.0004  57.5018 0003119 269.3949  90.6852 14.98336911 53834,6950.172,96.107,574.204,569.869,0.0
56464.0,STARLINK-6043,PAYLOAD,2024-04-29 20:16:20,14.98324725,0.0003135,70.001,55.9868,268.6389,91.4411,0.0001936,2.217e-05,0.0,0 STARLINK-6043,1 56464U 23064S   24120.84468539  .00002217  00000-0  19360-3 0  9990,2 56464  70.0010  55.9868 0003135 268.6389  91.4411 14.98324725 53924,6950.209,96.107,574.253,569.895,0.0
56464.0,STARLINK-6043,PAYLOAD,2024-04-29 21:52:28,14.98324731,0.0003142,70.001,55.8186,268.6103,91.4696,0.00018936,2.167e-05,0.0,0 STARLINK-6043,1 56464U 23064S   24120.91144568  .00002167  00000-0  18936-3 0  9993,2 56464  70.0010  55.8186 0003142 268.6103  91.4696 14.98324731 53571,6950.209,96.107,574.258,569.89,0.0
56464.0,STARLINK-6043,PAYLOAD,2024-04-30 04:17:00,14.98359615,0.000245,70.0009,55.1461,254.6011,105.4878,-0.00037236,-4.536e-05,0.0,0 STARLINK-6043,1 56464U 23064S   24121.17847737 -.00004536  00000-0 -37236-3 0  9998,2 56464  70.0009  55.1461 0002450 254.6011 105.4878 14.98359615 53973,6950.101,96.105,573.669,570.264,0.0
56464.0,STARLINK-6043,PAYLOAD,2024-04-30 12:17:41,14.98329332,0.0003116,70.0009,54.3043,267.8312,92.249,7.3371e-05,7.83e-06,0.0,0 STARLINK-6043,1 56464U 23064S   24121.51228588  .00000783  00000-0  73371-4 0  9992,2 56464  70.0009  54.3043 0003116 267.8312  92.2490 14.98329332 54023,6950.195,96.107,574.226,569.894,0.0
56464.0,STARLINK-6043,PAYLOAD,2024-04-30 20:18:21,14.98365513,0.0002553,70.0012,53.463,274.4896,85.5971,-0.00059633,-7.207e-05,0.0,0 STARLINK-6043,1 56464U 23064S   24121.84608215 -.00007207  00000-0 -59633-3 0  9991,2 56464  70.0012  53.4630 0002553 274.4896  85.5971 14.98365513 54079,6950.083,96.105,573.722,570.174,0.0
56464.0,STARLINK-6043,PAYLOAD,2024-04-30 21:54:29,14.98335956,0.0002722,70.0013,53.295,269.5669,90.5178,-8.5857e-05,-1.117e-05,0.0,0 STARLINK-6043,1 56464U 23064S   24121.91284671 -.00001117  00000-0 -85857-4 0  9997,2 56464  70.0013  53.2950 0002722 269.5669  90.5178 14.98335956 53728,6950.174,96.107,573.931,570.148,0.0
56464.0,STARLINK-6043,PAYLOAD,2024-05-01 04:19:04,14.98190681,0.0002262,70.0013,52.622,274.8146,85.2755,0.0025102,0.00029877,0.0,0 STARLINK-6043,1 56464U 23064S   24122.17991681  .00029877  00000-0  25102-2 0  9998,2 56464  70.0013  52.6220 0002262 274.8146  85.2755 14.98190681 54120,6950.624,96.116,574.061,570.917,0.0
56464.0,STARLINK-6043,PAYLOAD,2024-05-01 12:19:42,14.98333914,0.0002901,70.0014,51.7805,265.4459,94.6368,-3.5795e-06,-1.36e-06,0.0,0 STARLINK-6043,1 56464U 23064S   24122.51368305 -.00000136  00000-0 -35795-5 0  9998,2 56464  70.0014  51.7805 0002901 265.4459  94.6368 14.98333914 54170,6950.181,96.107,574.062,570.03,0.0
56464.0,STARLINK-6043,PAYLOAD,2024-05-01 18:44:14,14.98335293,0.0002869,70.0014,51.1071,266.5367,93.5464,3.9015e-06,-4.6e-07,0.0,0 STARLINK-6043,1 56464U 23064S   24122.78072115 -.00000046  00000-0  39015-5 0  9996,2 56464  70.0014  51.1071 0002869 266.5367  93.5464 14.98335293 53853,6950.177,96.107,574.036,570.048,0.0
56464.0,STARLINK-6043,PAYLOAD,2024-05-02 12:21:42,14.98335821,0.0002918,70.0013,49.255,270.6408,89.4417,-5.5096e-05,-7.5e-06,0.0,0 STARLINK-6043,1 56464U 23064S   24123.51507973 -.00000750  00000-0 -55096-4 0  9992,2 56464  70.0013  49.2550 0002918 270.6408  89.4417 14.98335821 54321,6950.175,96.107,574.068,570.012,0.0
56464.0,STARLINK-6043,PAYLOAD,2024-05-03 12:23:43,14.98327614,0.0003698,70.0017,46.7302,268.2472,91.8263,-6.5711e-05,-8.77e-06,0.0,0 STARLINK-6043,1 56464U 23064S   24124.51648082 -.00000877  00000-0 -65711-4 0  9995,2 56464  70.0017  46.7302 0003698 268.2472  91.8263 14.98327614 54475,6950.2,96.107,574.635,569.495,0.0
56464.0,STARLINK-6043,PAYLOAD,2024-05-03 20:24:25,14.98318411,0.0002868,70.001,45.888,268.6209,91.4622,-0.00013621,-1.717e-05,0.0,0 STARLINK-6043,1 56464U 23064S   24124.85029313 -.00001717  00000-0 -13621-3 0  9998,2 56464  70.0010  45.8880 0002868 268.6209  91.4622 14.98318411 54525,6950.229,96.108,574.087,570.1,0.0
